[{"OBJECT_NAME":"STARLINK-1912","OBJECT_ID":"2020-088BJ","EPOCH":"2026-03-09T00:10:17.079168","MEAN_MOTION":15.55634663,"ECCENTRICITY":0.00082154,"INCLINATION":53.0525,"RA_OF_ASC_NODE":284.7515,"ARG_OF_PERICENTER":157.4332,"MEAN_ANOMALY":202.7041,"EPHEMERIS_TYPE":0,"CLASSIFICATION_TYPE":"U","NORAD_CAT_ID":47178,"ELEMENT_SET_NO":999,"REV_AT_EPOCH":29201,"BSTAR":0.0016669188,"MEAN_MOTION_DOT":0.00117861,"MEAN_MOTION_DDOT":0},{"OBJECT_NAME":"GRAVITY-1 R\/B","OBJECT_ID":"2025-226E","EPOCH":"2026-03-09T19:25:48.916416","MEAN_MOTION":15.69045626,"ECCENTRICITY":0.01212739,"INCLINATION":97.7734,"RA_OF_ASC_NODE":162.4594,"ARG_OF_PERICENTER":208.3864,"MEAN_ANOMALY":151.0755,"EPHEMERIS_TYPE":0,"CLASSIFICATION_TYPE":"U","NORAD_CAT_ID":66205,"ELEMENT_SET_NO":999,"REV_AT_EPOCH":2108,"BSTAR":0.00045626025,"MEAN_MOTION_DOT":0.0007988,"MEAN_MOTION_DDOT":4.219159e-6}]
